[{"OBJECT_NAME":"STARLINK-32136","OBJECT_ID":"2024-183G","EPOCH":"2026-03-09T12:32:20.325408","MEAN_MOTION":15.30186561,"ECCENTRICITY":0.000111,"INCLINATION":53.1619,"RA_OF_ASC_NODE":143.4555,"ARG_OF_PERICENTER":94.1261,"MEAN_ANOMALY":265.9867,"EPHEMERIS_TYPE":0,"CLASSIFICATION_TYPE":"U","NORAD_CAT_ID":61515,"ELEMENT_SET_NO":999,"REV_AT_EPOCH":7962,"BSTAR":-7.414411e-6,"MEAN_MOTION_DOT":-5.78e-6,"MEAN_MOTION_DDOT":0},{"OBJECT_NAME":"NOAA 16 DEB","OBJECT_ID":"2000-055BK","EPOCH":"2026-03-09T02:17:10.174560","MEAN_MOTION":15.30191008,"ECCENTRICITY":0.00052528,"INCLINATION":98.9831,"RA_OF_ASC_NODE":305.6383,"ARG_OF_PERICENTER":26.64,"MEAN_ANOMALY":333.5104,"EPHEMERIS_TYPE":0,"CLASSIFICATION_TYPE":"U","NORAD_CAT_ID":41128,"ELEMENT_SET_NO":999,"REV_AT_EPOCH":53406,"BSTAR":0.017668961,"MEAN_MOTION_DOT":0.00549039,"MEAN_MOTION_DDOT":0}]
